HAWK-11C                
1 62381U 24247E   26068.51221537  .00009223  00000+0  33290-3 0  9992
2 62381  45.0045 114.8762 0005900 329.7040  30.3502 15.28848020 67743
STARLINK-34186          
1 64145U 25111Y   26068.43961354  .00016533  00000+0  60827-3 0  9990
2 64145  43.0012  79.4066 0001391 285.7216  74.3482 15.27617234 45420
